GLOBALSTAR M057 [-]     
1 25943U 99058A   23325.98075084 -.00000062  00000+0  28085-3 0  9994
2 25943  51.9956 174.8835 0001323 279.6305  80.4395 12.24779394 96694
GLOBALSTAR M059 [-]     
1 25944U 99058B   23326.17404851 -.00000026  00000+0  74170-3 0  9991
2 25944  52.0029 317.3240 0000380 335.9549 105.6602 11.99955563505253
GLOBALSTAR M056 [-]     
1 25945U 99058C   23326.22217590 -.00000077  00000+0  12677-3 0  9990
2 25945  51.9980 333.8739 0001034 120.8875 320.5329 12.04772336 93566
GLOBALSTAR M031 [-]     
1 25946U 99058D   23326.00453816 -.00000112  00000+0 -21737-3 0  9998
2 25946  51.9962 261.0824 0002140  81.1553 358.4741 12.15998131 94817
GLOBALSTAR M039 [-]     
1 25961U 99062A   23326.12639624 -.00000059  00000+0  24881-3 0  9998
2 25961  51.9833 214.0692 0003017 138.1316 221.9782 12.62275138107840
GLOBALSTAR M034 [-]     
1 25962U 99062B   23326.47569770 -.00000074  00000+0  11766-3 0  9996
2 25962  51.9886  60.0657 0014120  43.2804  38.6026 11.79417441 70816
GLOBALSTAR M029 [-]     
1 25963U 99062C   23326.16382281 -.00000067  00000+0  23492-3 0  9994
2 25963  51.9784 205.8779 0003713  72.3339  96.6224 11.99870717100336
GLOBALSTAR M061 [-]     
1 25964U 99062D   23325.94539868 -.00000082  00000+0 -35711-4 0  9991
2 25964  51.9788 237.8879 0006084 336.8744 104.3927 11.76754274 53696
